ONEWEB-0116             
1 48046U 21025E   24229.14584761  .00000305  00000+0  79994-3 0  9995
2 48046  87.8882  93.5553 0001668  74.4419 285.6894 13.13469283165694
ONEWEB-0150             
1 48047U 21025F   24229.12044772 -.00000216  00000+0 -62721-3 0  9990
2 48047  87.8875  93.5758 0001880  82.8496 277.2847 13.13469070165585
ONEWEB-0107             
1 48048U 21025G   24229.12203782 -.00000225  00000+0 -65146-3 0  9993
2 48048  87.8875  93.5733 0001999  86.5143 273.6214 13.13469972165567
ONEWEB-0101             
1 48049U 21025H   24229.16171947  .00000365  00000+0  96565-3 0  9997
2 48049  87.8883  93.5854 0001673  82.7756 277.3563 13.13468947165545
ONEWEB-0113             
1 48050U 21025J   24229.13949482  .00000212  00000+0  54493-3 0  9998
2 48050  87.8879  93.5711 0001662  76.0070 284.1244 13.13470229165624
ONEWEB-0112             
1 48051U 21025K   24229.12679779 -.00000128  00000+0 -38608-3 0  9995
2 48051  87.8874  93.5698 0001829  79.4291 280.7044 13.13471724165633
ONEWEB-0156             
1 48052U 21025L   24229.13631943  .00000075  00000+0  17059-3 0  9994
2 48052  87.8879  93.5675 0001806  80.4845 279.6488 13.13472034165618
ONEWEB-0161             
1 48053U 21025M   24229.18552403  .00000596  00000+0  15961-2 0  9990
2 48053  87.8885  93.5660 0001834  84.0379 276.0959 13.13466845165553
